TERRASAR-X            
1 31698U 07026A   26028.08989405  .00002494  00000+0  12193-3 0  9990
2 31698  97.4459  37.7944 0001950  80.6728 279.4727 15.19145656 31956